{
  "type": "FeatureCollection",
  "features": [
    {
      "type": "Feature",
      "id": "chernikovka",
      "properties": {"name": "Калининский и Орджоникидзевский районы (Черниковка)"},
      "geometry": {
        "type": "Polygon",
        "coordinates": [[[56.082, 54.801], [56.071, 54.811], [56.051, 54.823], [56.044, 54.832], [56.048, 54.845], [56.059, 54.858], [56.069, 54.871], [56.095, 54.875], [56.112, 54.873], [56.131, 54.865], [56.148, 54.852], [56.155, 54.835], [56.161, 54.814], [56.142, 54.803], [56.115, 54.798], [56.082, 54.801]]]
      }
    },
    {
      "type": "Feature",
      "id": "sipalovo",
      "properties": {"name": "Октябрьский район (Сипайлово)"},
      "geometry": {
        "type": "Polygon",
        "coordinates": [[[56.041, 54.756], [56.031, 54.762], [56.028, 54.769], [56.031, 54.777], [56.035, 54.784], [56.049, 54.788], [56.061, 54.789], [56.076, 54.787], [56.088, 54.782], [56.094, 54.773], [56.092, 54.761], [56.084, 54.754], [56.071, 54.751], [56.055, 54.753], [56.041, 54.756]]]
      }
    },
    {
      "type": "Feature",
      "id": "center",
      "properties": {"name": "Советский и Кировский районы (Центр / Зеленая Роща)"},
      "geometry": {
        "type": "Polygon",
        "coordinates": [[[55.932, 54.712], [55.925, 54.721], [55.921, 54.728], [55.928, 54.739], [55.939, 54.749], [55.955, 54.753], [55.972, 54.755], [55.991, 54.753], [56.015, 54.748], [56.022, 54.736], [56.019, 54.721], [56.002, 54.711], [55.978, 54.708], [55.951, 54.709], [55.932, 54.712]]]
      }
    },
    {
      "type": "Feature",
      "id": "dema",
      "properties": {"name": "Дёмский район"},
      "geometry": {
        "type": "Polygon",
        "coordinates": [[[55.762, 54.671], [55.758, 54.681], [55.755, 54.692], [55.767, 54.704], [55.782, 54.714], [55.801, 54.719], [55.821, 54.718], [55.839, 54.711], [55.854, 54.699], [55.855, 54.686], [55.848, 54.674], [55.828, 54.667], [55.802, 54.665], [55.781, 54.666], [55.762, 54.671]]]
      }
    },
    {
      "type": "Feature",
      "id": "zaton",
      "properties": {"name": "Ленинский район (Затон)"},
      "geometry": {
        "type": "Polygon",
        "coordinates": [[[55.842, 54.741], [55.835, 54.753], [55.831, 54.768], [55.838, 54.781], [55.852, 54.791], [55.873, 54.796], [55.895, 54.794], [55.912, 54.785], [55.922, 54.772], [55.924, 54.758], [55.918, 54.745], [55.899, 54.738], [55.875, 54.736], [55.856, 54.737], [55.842, 54.741]]]
      }
    }
  ]
}
